#dP2024 12 13 12  0  0.00000000      96 __u+U IGS20 EXT  IAC
## 2344 475200.00000000   900.00000000 60657 0.5000000000000
+   52   G02G03G04G05G06G07G08G09G10G11G12G13G14G15G16G17G18
+        G19G20G21G22G23G24G25G26G27G28G29G30G31G32R01R02R03
+        R04R05R07R08R09R11R12R14R15R16R17R18R19R20R21R22R24
+        R26  0  0  0  0  0  0  0  0  0  0  0  0  0  0  0  0
+          0  0  0  0  0  0  0  0  0  0  0  0  0  0  0  0  0
++         7  7  6  8  7  7  8  7  7  7  6  8  6  7  6  8  6
++         8  8  7  7  8  8  7  7  6  7  7  7  6  7  9  8  7
++         9 10  9  7  8  7  7  9  8  8  7  9  9 10  9  9  7
++         8  0  0  0  0  0  0  0  0  0  0  0  0  0  0  0  0
++         0  0  0  0  0  0  0  0  0  0  0  0  0  0  0  0  0
%c M  cc GPS ccc cccc cccc cccc cccc ccccc ccccc ccccc ccccc
%c cc cc ccc ccc cccc cccc cccc cccc ccccc ccccc ccccc ccccc
%f  0.0000000  0.000000000  0.00000000000  0.000000000000000
%f  0.0000000  0.000000000  0.00000000000  0.000000000000000
%i    0    0    0    0      0      0      0      0         0
%i    0    0    0    0      0      0      0      0         0
/* IAC                                ULTRA-RAPID PREDICTION
/* S/V CLOCKS ARE ALIGNED TO GNSS TIME                      
/* G:C1WC2W R:C1PC2P E:C1XC5X C:C2IC6I J:C1CC2S             
/* PCV:IGS20_2317 OL/AL:FES2004  NONE     YN ORB:CoN CLK:CoN
*  2024 12 13 19  0  0.00000000
PG02   1060.684008 -15781.167294 -20803.226055   -292.781420
PG03  -9777.017500 -21321.237457 -12731.093875    623.734486
PG04   -845.708338 -24159.239432  10842.679112    495.309020
PG05  -4119.539508  15402.372580  21055.583156   -195.906859
PG06 -25971.170798   5354.535877  -2334.713525    -41.616516
PG07 -16236.534460  -9737.017346  19336.286946    -15.741935
PG08   5743.201261 -25669.947134    511.448463    437.630339
PG09  -8190.839605 -18435.522898  17148.546369    485.596943
PG10  21013.711781   6890.861378 -14729.404849   -233.113835
PG11 -21163.252020  12307.535074  10262.341936   -752.581452
PG12   5036.231284  21424.304395 -15192.345841   -558.146660
PG13 -13662.062357  21578.287923   6589.044174    689.830384
PG14 -21780.209156  -9967.401699 -11682.300804    559.478188
PG15  -1976.101242  26405.424484   -403.189328    239.176087
PG16  10437.217042 -10887.700290  21492.036748   -104.134950
PG17 -14917.506271  -2034.987161 -21479.859135    520.491336
PG18  18238.077610   7698.042412  17849.367455   -660.335963
PG19 -16827.108210   8205.638661 -18804.839760    573.583046
PG20 -14759.122643   7729.343901  20739.052242    367.921660
PG21   7466.508951 -16738.139038 -18409.751031     95.778356
PG22 -19151.081922  -3362.031480 -17563.011036    -86.119533
PG23  20627.248898  16757.124084  -2387.012938    382.837263
PG24  -2653.079012  17283.420076 -20358.361294   -473.723460
PG25  16776.928438  20289.693182  -4820.528227    498.134128
PG26  18808.635385  -2537.311309  18547.838913     -7.643932
PG27  12495.076066 -20512.310036  10541.781362    -34.207386
PG28  25709.490943  -4846.375155  -4613.231692   -507.183611
PG29   6395.404728  18870.360968  17458.786912   -556.213748
PG30 -24391.148772  -1325.221822  10903.823220   -262.022360
PG31  24121.041955 -10184.197624   5252.759320   -220.036043
PG32  15622.845997  -2312.740563 -21100.121482   -559.553422
PR01  11364.032051   6734.239246 -21820.308273    107.659926
PR02   8585.771660 -11620.109753 -20957.806306    -39.144667
PR03   1036.643421 -24161.631365  -7962.249347    113.194385
PR04  -6420.809148 -23032.438763   8883.144819    268.287338
PR05 -10668.166056  -9700.808345  21042.949431    142.132484
PR07   -925.147878  24342.809827   7703.372520     96.877101
PR08   6730.206754  22913.221301  -8965.758249     -6.121576
PR09 -17857.974362   2575.268788 -18054.728823    226.039444
PR11  14025.846484  14157.170280 -15905.945372      4.723237
PR12  23787.691839   8836.553918   2685.732803     48.376203
PR14   1710.110982 -11307.578726  22807.172218     27.422772
PR15 -15402.672553 -14252.674344  14517.778307     73.220471
PR16 -23800.213536  -8884.678758  -2489.810981     31.606306
PR17  12049.215738 -17088.187472 -14625.502978    148.237198
PR18  -2676.324897 -10848.231563 -22902.569878    176.651132
PR19 -14999.093944  -1149.066509 -20590.227736   -301.803669
PR20 -21900.646315  12724.855640  -3169.788087   -123.184652
PR21 -13041.303212  17025.977285  13795.020087   -159.267492
PR22   3826.352709  10569.506020  22930.059075    -40.521846
PR24  21213.415482 -13925.282274   2714.703940    -83.922600
PR26   6166.928858  23644.818992  -7271.470992   -132.772897
*  2024 12 13 19 15  0.00000000
PG02   3341.424219 -16628.012618 -19869.405888   -292.773461
PG03  -8545.310746 -20366.151133 -14998.142988    623.742326
PG04   -359.481046 -25165.335552   8257.639275    495.314617
PG05  -6064.486920  13866.716845  21645.185025   -195.907885
PG06 -25600.681135   5071.709895  -5196.403364    -41.642419
PG07 -14201.359219 -10485.772539  20503.582019    -15.740795
PG08   6017.148616 -25379.974497   3361.337299    437.638454
PG09  -7670.805810 -20242.488779  15250.853999    485.611544
PG10  22091.454519   8044.985831 -12454.526647   -233.127617
PG11 -22206.913730  12359.489466   7646.328775   -752.581777
PG12   3672.626491  20239.853986 -17117.611021   -558.148773
PG13 -13548.613218  20616.023958   9283.939955    689.831702
PG14 -22480.835827 -10970.173121  -9227.105102    559.485095
PG15  -2300.917228  26216.635091   2411.247042    239.180164
PG16  12173.402755  -9040.987801  21475.535236   -104.126358
PG17 -14233.763721  -4491.507993 -21551.219329    520.476995
PG18  16244.805738   8407.394126  19371.739493   -660.335576
PG19 -16261.851523   6063.484089 -20118.071827    573.586883
PG20 -16660.898361   6428.889164  19700.321588    367.921380
PG21   9498.099837 -17379.374571 -16744.118894     95.780765
PG22 -20358.167458  -4948.702066 -15749.623825    -86.121736
PG23  20597.416018  16963.393361    494.798840    382.844235
PG24  -4720.645491  18034.610758 -19241.348958   -473.720694
PG25  16113.221369  20045.563634  -7521.505016    498.133751
PG26  20350.860940  -1152.535651  17045.165978     -7.656571
PG27  12462.903953 -19088.291519  12953.589251    -34.207091
PG28  25148.316999  -4386.089505  -7358.482573   -507.193300
PG29   5704.386538  20647.898368  15579.895667   -556.210875
PG30 -23179.818864  -1981.823506  13208.316046   -262.015046
PG31  24637.342996 -10081.464304   2477.639295   -220.035377
PG32  15173.131988    137.119463 -21563.071693   -559.547953
PR01  11874.788336   9300.507087 -20569.074001    107.661162
PR02   8882.030878  -8964.699492 -22110.564014    -39.144446
PR03   1058.770669 -22979.224886 -10905.237735    113.195151
PR04  -6713.415130 -23905.965835   5819.922448    268.288926
PR05 -11080.076523 -12169.812661  19486.519685    142.132973
PR07   -928.419059  23205.639539  10655.946908     96.877823
PR08   7021.270752  23807.075203  -5919.003802     -6.121577
PR09 -19852.633468   1929.682907 -15936.238944    226.041436
PR11  12103.313838  13311.294775 -18068.942334      4.722271
PR12  23958.940433   8760.536298   -514.691367     48.376573
PR14   4342.676192 -10297.727754  22934.250706     27.422899
PR15 -13638.128276 -13458.381108  16854.033785     73.220216
PR16 -23958.539881  -8779.533774    720.367589     31.606662
PR17  13251.908045 -18220.481474 -11986.557872    148.240197
PR18   -480.183640 -12569.805799 -22158.676745    176.652920
PR19 -12806.302014  -2599.473425 -21897.172922   -301.804956
PR20 -21295.485759  12559.681090  -6342.542997   -123.185125
PR21 -14160.754677  18089.572513  11063.838675   -159.270353
PR22   1586.006555  12226.879023  22363.717405    -40.533389
PR24  20708.200765 -13716.769858   5869.703530    -83.923937
PR26   6433.024658  24320.690412  -4148.352778   -132.772564
EOF
